NORAD_CAT_ID,OBJECT_NAME,OBJECT_TYPE,EPOCH,MEAN_MOTION,ECCENTRICITY,INCLINATION,RA_OF_ASC_NODE,ARG_OF_PERICENTER,MEAN_ANOMALY,BSTAR,MEAN_MOTION_DOT,MEAN_MOTION_DDOT,TLE_LINE0,TLE_LINE1,TLE_LINE2,SEMIMAJOR_AXIS,PERIOD,APOGEE,PERIGEE,DECAYED
51856.0,STARLINK-3568,PAYLOAD,2023-02-18 00:45:07,15.08749784,0.0001339,53.2162,347.5077,75.9806,284.1335,0.00046379,7.083e-05,0.0,0 STARLINK-3568,1 51856U 22022E   23049.03133943  .00007083  00000-0  46379-3 0  9997,2 51856  53.2162 347.5077 0001339  75.9806 284.1335 15.08749784 54626,6918.156,95.443,540.947,539.095,0.0
51856.0,STARLINK-3568,PAYLOAD,2023-02-18 02:20:31,15.08749734,0.0001451,53.2162,347.2105,70.2118,289.9031,0.00064564,9.977e-05,0.0,0 STARLINK-3568,1 51856U 22022E   23049.09758374  .00009977  00000-0  64564-3 0  9994,2 51856  53.2162 347.2105 0001451  70.2118 289.9031 15.08749734 54636,6918.156,95.443,541.025,539.017,0.0
51856.0,STARLINK-3568,PAYLOAD,2023-02-19 02:11:18,15.08881127,0.0001051,53.217,342.7483,63.3179,296.792,0.0032129,0.00051275,0.0,0 STARLINK-3568,1 51856U 22022E   23050.09118855  .00051275  00000-0  32129-2 0  9999,2 51856  53.2170 342.7483 0001051  63.3179 296.7920 15.08881127 54782,6917.755,95.435,540.347,538.893,0.0
51856.0,STARLINK-3568,PAYLOAD,2023-02-19 06:57:27,15.08903609,0.0001221,53.2181,341.86,78.6826,281.4304,0.0032356,0.00051674,0.0,0 STARLINK-3568,1 51856U 22022E   23050.28990177  .00051674  00000-0  32356-2 0  9990,2 51856  53.2181 341.8600 0001221  78.6826 281.4304 15.08903609 54813,6917.686,95.434,540.396,538.706,0.0
51856.0,STARLINK-3568,PAYLOAD,2023-02-19 22:51:17,15.08892275,0.0002261,53.2178,338.8851,133.4026,226.7154,0.0033442,0.00053416,0.0,0 STARLINK-3568,1 51856U 22022E   23050.95229060  .00053416  00000-0  33442-2 0  9993,2 51856  53.2178 338.8851 0002261 133.4026 226.7154 15.08892275 54912,6917.721,95.434,541.15,538.022,0.0
51856.0,STARLINK-3568,PAYLOAD,2023-02-20 02:02:04,15.08887638,0.0001298,53.2178,338.2892,86.3899,273.7241,0.0020431,0.0003242,0.0,0 STARLINK-3568,1 51856U 22022E   23051.08476923  .00032420  00000-0  20431-2 0  9996,2 51856  53.2178 338.2892 0001298  86.3899 273.7241 15.08887638 54932,6917.735,95.435,540.498,538.702,0.0
51856.0,STARLINK-3568,PAYLOAD,2023-02-20 11:34:22,15.08872632,0.000129,53.2186,336.5071,81.4845,278.6294,0.0029968,0.00047772,0.0,0 STARLINK-3568,1 51856U 22022E   23051.48220347  .00047772  00000-0  29968-2 0  9997,2 51856  53.2186 336.5071 0001290  81.4845 278.6294 15.08872632 54996,6917.781,95.435,540.538,538.753,0.0
51856.0,STARLINK-3568,PAYLOAD,2023-02-20 22:42:04,15.08845656,0.0001169,53.2169,334.4246,73.9921,286.12,0.00088702,0.00013859,0.0,0 STARLINK-3568,1 51856U 22022E   23051.94588564  .00013859  00000-0  88702-3 0  9997,2 51856  53.2169 334.4246 0001169  73.9921 286.1200 15.08845656 55060,6917.863,95.437,540.537,538.919,0.0
51856.0,STARLINK-3568,PAYLOAD,2023-02-21 11:25:09,15.08851566,0.000116,53.217,332.0452,74.5191,285.5929,0.0011718,0.00018416,0.0,0 STARLINK-3568,1 51856U 22022E   23052.47580631  .00018416  00000-0  11718-2 0  9999,2 51856  53.2170 332.0452 0001160  74.5191 285.5929 15.08851566 55149,6917.845,95.437,540.513,538.908,0.0
51856.0,STARLINK-3568,PAYLOAD,2023-02-21 17:46:42,15.08858028,0.0001202,53.2173,330.857,81.4375,278.6753,0.0012605,0.0001984,0.0,0 STARLINK-3568,1 51856U 22022E   23052.74076499  .00019840  00000-0  12605-2 0  9999,2 51856  53.2173 330.8570 0001202  81.4375 278.6753 15.08858028 55189,6917.825,95.436,540.522,538.859,0.0
51856.0,STARLINK-3568,PAYLOAD,2023-02-22 03:19:00,15.08871199,0.0001327,53.2164,329.0727,79.052,281.0622,0.0017435,0.00027593,0.0,0 STARLINK-3568,1 51856U 22022E   23053.13820065  .00027593  00000-0  17435-2 0  9999,2 51856  53.2164 329.0727 0001327  79.0520 281.0622 15.08871199 55240,6917.785,95.436,540.568,538.732,0.0
51856.0,STARLINK-3568,PAYLOAD,2023-02-22 22:23:38,15.08838402,0.0004679,53.2158,325.5038,156.4389,203.6818,0.0018526,0.00029323,0.0,0 STARLINK-3568,1 51856U 22022E   23053.93308795  .00029323  00000-0  18526-2 0  9993,2 51856  53.2158 325.5038 0004679 156.4389 203.6818 15.08838402 55365,6917.885,95.438,542.987,536.513,0.0
51856.0,STARLINK-3568,PAYLOAD,2023-02-23 06:20:35,15.0883863,0.0001643,53.2153,324.0168,74.7788,285.3386,0.0016054,0.00025353,0.0,0 STARLINK-3568,1 51856U 22022E   23054.26429948  .00025353  00000-0  16054-2 0  9997,2 51856  53.2153 324.0168 0001643  74.7788 285.3386 15.08838630 55417,6917.885,95.438,540.886,538.613,0.0
51856.0,STARLINK-3568,PAYLOAD,2023-02-23 23:49:49,15.08877483,0.0001679,53.2148,320.7456,75.042,285.0758,0.0016965,0.00026843,0.0,0 STARLINK-3568,1 51856U 22022E   23054.99292999  .00026843  00000-0  16965-2 0  9997,2 51856  53.2148 320.7456 0001679  75.0420 285.0758 15.08877483 55521,6917.766,95.435,540.792,538.469,0.0
51856.0,STARLINK-3568,PAYLOAD,2023-02-24 23:40:36,15.08851604,0.000202,53.2152,316.2855,92.6315,267.4908,0.0013012,0.00020488,0.0,0 STARLINK-3568,1 51856U 22022E   23055.98652879  .00020488  00000-0  13012-2 0  9993,2 51856  53.2152 316.2855 0002020  92.6315 267.4908 15.08851604 55672,6917.845,95.437,541.107,538.313,0.0
51856.0,STARLINK-3568,PAYLOAD,2023-02-25 02:51:22,15.08848627,0.0001509,53.2154,315.6916,85.7128,274.4037,0.0012878,0.00020272,0.0,0 STARLINK-3568,1 51856U 22022E   23056.11900876  .00020272  00000-0  12878-2 0  9992,2 51856  53.2154 315.6916 0001509  85.7128 274.4037 15.08848627 55695,6917.854,95.437,540.763,538.675,0.0
51856.0,STARLINK-3568,PAYLOAD,2023-02-25 20:20:37,15.0883878,0.0001575,53.2154,312.4183,94.8342,265.283,0.0017507,0.00027683,0.0,0 STARLINK-3568,1 51856U 22022E   23056.84765532  .00027683  00000-0  17507-2 0  9997,2 51856  53.2154 312.4183 0001575  94.8342 265.2830 15.08838780 55809,6917.884,95.438,540.839,538.66,0.0
51856.0,STARLINK-3568,PAYLOAD,2023-02-26 02:42:09,15.08857109,0.0001524,53.2154,311.2284,89.7487,270.368,0.0017311,0.00027383,0.0,0 STARLINK-3568,1 51856U 22022E   23057.11261301  .00027383  00000-0  17311-2 0  9993,2 51856  53.2154 311.2284 0001524  89.7487 270.3680 15.08857109 55845,6917.828,95.436,540.747,538.639,0.0
51856.0,STARLINK-3568,PAYLOAD,2023-02-26 17:00:37,15.08854171,0.0001772,53.2159,308.5488,96.8613,263.2581,0.00099481,0.00015586,0.0,0 STARLINK-3568,1 51856U 22022E   23057.70877045  .00015586  00000-0  99481-3 0  9997,2 51856  53.2159 308.5488 0001772  96.8613 263.2581 15.08854171 55937,6917.837,95.437,540.928,538.476,0.0
51856.0,STARLINK-3568,PAYLOAD,2023-02-26 23:22:09,15.08868506,0.0002445,53.2156,307.361,92.1226,268.0046,0.0010448,0.00016392,0.0,0 STARLINK-3568,1 51856U 22022E   23057.97372599  .00016392  00000-0  10448-2 0  9991,2 51856  53.2156 307.3610 0002445  92.1226 268.0046 15.08868506 55975,6917.793,95.436,541.35,537.967,0.0
51856.0,STARLINK-3568,PAYLOAD,2023-02-27 18:26:46,15.08872415,8.38e-05,53.2152,303.7919,82.0165,278.0922,0.0011181,0.00017567,0.0,0 STARLINK-3568,1 51856U 22022E   23058.76859834  .00017567  00000-0  11181-2 0  9991,2 51856  53.2152 303.7919 0000838  82.0165 278.0922 15.08872415 56099,6917.781,95.436,540.226,539.067,0.0
51856.0,STARLINK-3568,PAYLOAD,2023-02-27 23:12:56,15.08875919,0.0001036,53.2154,302.9014,88.9729,271.1381,0.0011336,0.00017817,0.0,0 STARLINK-3568,1 51856U 22022E   23058.96731528  .00017817  00000-0  11336-2 0  9992,2 51856  53.2154 302.9014 0001036  88.9729 271.1381 15.08875919 56129,6917.771,95.435,540.352,538.919,0.0
51856.0,STARLINK-3568,PAYLOAD,2023-02-28 23:03:45,15.08806825,0.0001197,53.2155,298.4382,59.9257,300.1854,-5.3389e-05,-1.137e-05,0.0,0 STARLINK-3568,1 51856U 22022E   23059.96093861 -.00001137  00000-0 -53389-4 0  9990,2 51856  53.2155 298.4382 0001197  59.9257 300.1854 15.08806825 56273,6917.982,95.44,540.675,539.019,0.0
51856.0,STARLINK-3568,PAYLOAD,2023-03-01 07:00:41,15.08817778,0.0001229,53.2154,296.9557,82.6796,277.4336,-0.00030981,-5.212e-05,0.0,0 STARLINK-3568,1 51856U 22022E   23060.29214515 -.00005212  00000-0 -30981-3 0  9999,2 51856  53.2154 296.9557 0001229  82.6796 277.4336 15.08817778 56322,6917.948,95.439,540.664,538.963,0.0
51856.0,STARLINK-3568,PAYLOAD,2023-03-01 21:19:09,15.08825509,0.000118,53.2148,294.2799,81.4721,278.6405,-0.00013972,-2.51e-05,0.0,0 STARLINK-3568,1 51856U 22022E   23060.88830547 -.00002510  00000-0 -13972-3 0  9992,2 51856  53.2148 294.2799 0001180  81.4721 278.6405 15.08825509 56416,6917.925,95.438,540.606,538.973,0.0
51856.0,STARLINK-3568,PAYLOAD,2023-03-02 02:05:19,15.08832549,0.0001104,53.2147,293.387,84.8229,275.2889,0.00031519,4.731e-05,0.0,0 STARLINK-3568,1 51856U 22022E   23061.08703037  .00004731  00000-0  31519-3 0  9990,2 51856  53.2147 293.3870 0001104  84.8229 275.2889 15.08832549 56445,6917.903,95.438,540.532,539.004,0.0
51856.0,STARLINK-3568,PAYLOAD,2023-03-02 19:34:33,15.08868449,0.000104,53.2141,290.116,75.2817,284.8291,0.0011149,0.00017514,0.0,0 STARLINK-3568,1 51856U 22022E   23061.81566505  .00017514  00000-0  11149-2 0  9997,2 51856  53.2141 290.1160 0001040  75.2817 284.8291 15.08868449 56555,6917.793,95.436,540.378,538.939,0.0
51856.0,STARLINK-3568,PAYLOAD,2023-03-03 03:31:28,15.08905578,9.41e-05,53.2139,288.6295,74.4187,285.6909,0.0022621,0.00035962,0.0,0 STARLINK-3568,1 51856U 22022E   23062.14685256  .00035962  00000-0  22621-2 0  9993,2 51856  53.2139 288.6295 0000941  74.4187 285.6909 15.08905578 56609,6917.68,95.433,540.196,538.894,0.0
51856.0,STARLINK-3568,PAYLOAD,2023-03-03 14:39:10,15.08856883,7.88e-05,53.2143,286.547,56.6986,303.4082,0.00071181,0.00011064,0.0,0 STARLINK-3568,1 51856U 22022E   23062.61053549  .00011064  00000-0  71181-3 0  9992,2 51856  53.2143 286.5470 0000788  56.6986 303.4082 15.08856883 56676,6917.829,95.436,540.239,539.149,0.0
51856.0,STARLINK-3568,PAYLOAD,2023-03-03 21:00:42,15.08869503,0.000102,53.2143,285.3581,78.8658,281.2449,0.0017943,0.00028407,0.0,0 STARLINK-3568,1 51856U 22022E   23062.87549090  .00028407  00000-0  17943-2 0  9995,2 51856  53.2143 285.3581 0001020  78.8658 281.2449 15.08869503 56716,6917.79,95.436,540.361,538.95,0.0
